start=new Date('2023-04-03T00:00:00.000Z').valueOf();
sats=[{"DECAY_DATE":null,"OBJECT_TYPE":"PAYLOAD","ELEMENT_SET_NO":"999","BSTAR":"-0.09532500000000","TLE_LINE1":"1 55273U 23010E   23092.91667824 -.01116538  00000-0 -95325-1 0  9999","ECCENTRICITY":"0.00030000","TLE_LINE2":"2 55273  70.0004 226.9680 0003000 274.1013 307.9255 15.00766721  1309","OBJECT_ID":"2023-010E","REV_AT_EPOCH":"130","EPHEMERIS_TYPE":"0","SEMIMAJOR_AXIS":"6942.668","PERIOD":"95.951","RCS_SIZE":"LARGE","OBJECT_NAME":"STARLINK-5291","MEAN_ANOMALY":"307.9255","TIME_SYSTEM":"UTC","NORAD_CAT_ID":"55273","LAUNCH_DATE":"2023-01-19","REF_FRAME":"TEME","CENTER_NAME":"EARTH","INCLINATION":"70.0004","SITE":"AFWTR","MEAN_MOTION_DDOT":"0.0000000000000","MEAN_MOTION_DOT":"-0.01116538","MEAN_MOTION":"15.00766721","MEAN_ELEMENT_THEORY":"SGP4","GP_ID":"229354024","COUNTRY_CODE":"US","ARG_OF_PERICENTER":"274.1013","FILE":"3878419","RA_OF_ASC_NODE":"226.9680","CLASSIFICATION_TYPE":"U","PERIAPSIS":"562.450","EPOCH":"2023-04-02T22:00:00.999936","APOAPSIS":"566.616"},{"CENTER_NAME":"EARTH","REF_FRAME":"TEME","INCLINATION":"70.0007","SITE":"AFWTR","MEAN_ELEMENT_THEORY":"SGP4","MEAN_MOTION":"15.69918028","MEAN_MOTION_DOT":"-0.00004161","MEAN_MOTION_DDOT":"0.0000000000000","COUNTRY_CODE":"US","GP_ID":"229354274","FILE":"3878419","ARG_OF_PERICENTER":"265.8439","CLASSIFICATION_TYPE":"U","RA_OF_ASC_NODE":"223.0098","APOAPSIS":"361.665","EPOCH":"2023-04-02T18:33:09.885312","PERIAPSIS":"356.602","DECAY_DATE":null,"OBJECT_TYPE":"PAYLOAD","BSTAR":"-0.00003285500000","ELEMENT_SET_NO":"999","TLE_LINE2":"2 55274  70.0007 223.0098 0003757 265.8439  94.2327 15.69918028 12326","ECCENTRICITY":"0.00037570","TLE_LINE1":"1 55274U 23010F   23092.77303108 -.00004161  00000-0 -32855-4 0  9995","REV_AT_EPOCH":"1232","EPHEMERIS_TYPE":"0","OBJECT_ID":"2023-010F","PERIOD":"91.725","SEMIMAJOR_AXIS":"6737.269","RCS_SIZE":"LARGE","OBJECT_NAME":"STARLINK-5236","NORAD_CAT_ID":"55274","TIME_SYSTEM":"UTC","MEAN_ANOMALY":"94.2327","LAUNCH_DATE":"2023-01-19"},{"SEMIMAJOR_AXIS":"6737.264","PERIOD":"91.724","RCS_SIZE":"LARGE","OBJECT_NAME":"STARLINK-5260","MEAN_ANOMALY":"82.3676","TIME_SYSTEM":"UTC","NORAD_CAT_ID":"55275","LAUNCH_DATE":"2023-01-19","DECAY_DATE":null,"OBJECT_TYPE":"PAYLOAD","ELEMENT_SET_NO":"999","BSTAR":"0.00000117850000","TLE_LINE1":"1 55275U 23010G   23092.77293526 -.00000071  00000-0  11785-5 0  9993","ECCENTRICITY":"0.00026390","TLE_LINE2":"2 55275  70.0015 223.0081 0002639 277.7220  82.3676 15.69919539 12329","OBJECT_ID":"2023-010G","REV_AT_EPOCH":"1232","EPHEMERIS_TYPE":"0","GP_ID":"229355526","COUNTRY_CODE":"US","ARG_OF_PERICENTER":"277.7220","FILE":"3878419","RA_OF_ASC_NODE":"223.0081","CLASSIFICATION_TYPE":"U","PERIAPSIS":"357.351","EPOCH":"2023-04-02T18:33:01.606464","APOAPSIS":"360.907","REF_FRAME":"TEME","CENTER_NAME":"EARTH","INCLINATION":"70.0015","SITE":"AFWTR","MEAN_MOTION_DOT":"-0.00000071","MEAN_MOTION_DDOT":"0.0000000000000","MEAN_MOTION":"15.69919539","MEAN_ELEMENT_THEORY":"SGP4"},{"ELEMENT_SET_NO":"999","BSTAR":"0.00000408650000","DECAY_DATE":null,"OBJECT_TYPE":"PAYLOAD","OBJECT_ID":"2023-010H","REV_AT_EPOCH":"1231","EPHEMERIS_TYPE":"0","TLE_LINE1":"1 55276U 23010H   23092.77262350  .00000279  00000-0  40865-5 0  9995","TLE_LINE2":"2 55276  70.0011 223.0058 0002720 256.2939 103.7954 15.69912536 12316","ECCENTRICITY":"0.00027200","RCS_SIZE":"LARGE","OBJECT_NAME":"STARLINK-5261","SEMIMAJOR_AXIS":"6737.284","PERIOD":"91.725","LAUNCH_DATE":"2023-01-19","MEAN_ANOMALY":"103.7954","NORAD_CAT_ID":"55276","TIME_SYSTEM":"UTC","INCLINATION":"70.0011","REF_FRAME":"TEME","CENTER_NAME":"EARTH","MEAN_MOTION":"15.69912536","MEAN_MOTION_DOT":"0.00000279","MEAN_MOTION_DDOT":"0.0000000000000","MEAN_ELEMENT_THEORY":"SGP4","SITE":"AFWTR","ARG_OF_PERICENTER":"256.2939","FILE":"3878419","GP_ID":"229355254","COUNTRY_CODE":"US","PERIAPSIS":"357.317","APOAPSIS":"360.982","EPOCH":"2023-04-02T18:32:34.670400","CLASSIFICATION_TYPE":"U","RA_OF_ASC_NODE":"223.0058"},{"SITE":"AFWTR","MEAN_ELEMENT_THEORY":"SGP4","MEAN_MOTION_DOT":"-0.01118880","MEAN_MOTION_DDOT":"0.0000000000000","MEAN_MOTION":"15.00824981","CENTER_NAME":"EARTH","REF_FRAME":"TEME","INCLINATION":"70.0004","RA_OF_ASC_NODE":"226.9599","CLASSIFICATION_TYPE":"U","EPOCH":"2023-04-02T22:00:00.999936","APOAPSIS":"566.471","PERIAPSIS":"562.236","COUNTRY_CODE":"US","GP_ID":"229354525","FILE":"3878419","ARG_OF_PERICENTER":"273.6123","ECCENTRICITY":"0.00030500","TLE_LINE2":"2 55277  70.0004 226.9599 0003050 273.6123 315.2662 15.00824981  1300","TLE_LINE1":"1 55277U 23010J   23092.91667824 -.01118880  00000-0 -95394-1 0  9991","EPHEMERIS_TYPE":"0","REV_AT_EPOCH":"130","OBJECT_ID":"2023-010J","DECAY_DATE":null,"OBJECT_TYPE":"PAYLOAD","BSTAR":"-0.09539400000000","ELEMENT_SET_NO":"999","TIME_SYSTEM":"UTC","NORAD_CAT_ID":"55277","MEAN_ANOMALY":"315.2662","LAUNCH_DATE":"2023-01-19","SEMIMAJOR_AXIS":"6942.488","PERIOD":"95.947","OBJECT_NAME":"STARLINK-5299","RCS_SIZE":"LARGE"},{"CLASSIFICATION_TYPE":"U","RA_OF_ASC_NODE":"226.8586","PERIAPSIS":"558.950","EPOCH":"2023-04-02T22:00:00.999936","APOAPSIS":"563.301","GP_ID":"229354775","COUNTRY_CODE":"US","ARG_OF_PERICENTER":"272.1226","FILE":"3878419","SITE":"AFWTR","MEAN_MOTION":"15.01872159","MEAN_MOTION_DOT":"-0.01116423","MEAN_MOTION_DDOT":"0.0000000000000","MEAN_ELEMENT_THEORY":"SGP4","REF_FRAME":"TEME","CENTER_NAME":"EARTH","INCLINATION":"70.0004","MEAN_ANOMALY":"46.1068","NORAD_CAT_ID":"55278","TIME_SYSTEM":"UTC","LAUNCH_DATE":"2023-01-19","SEMIMAJOR_AXIS":"6939.261","PERIOD":"95.880","OBJECT_NAME":"STARLINK-5289","RCS_SIZE":"LARGE","TLE_LINE1":"1 55278U 23010K   23092.91667824 -.01116423  00000-0 -92568-1 0  9993","TLE_LINE2":"2 55278  70.0004 226.8586 0003135 272.1226  46.1068 15.01872159  1309","ECCENTRICITY":"0.00031350","OBJECT_ID":"2023-010K","REV_AT_EPOCH":"130","EPHEMERIS_TYPE":"0","OBJECT_TYPE":"PAYLOAD","DECAY_DATE":null,"ELEMENT_SET_NO":"999","BSTAR":"-0.09256800000000"},{"OBJECT_NAME":"STARLINK-5323","RCS_SIZE":"LARGE","SEMIMAJOR_AXIS":"6941.908","PERIOD":"95.935","LAUNCH_DATE":"2023-01-19","NORAD_CAT_ID":"55279","TIME_SYSTEM":"UTC","MEAN_ANOMALY":"331.2792","BSTAR":"-0.09540300000000","ELEMENT_SET_NO":"999","OBJECT_TYPE":"PAYLOAD","DECAY_DATE":null,"EPHEMERIS_TYPE":"0","REV_AT_EPOCH":"130","OBJECT_ID":"2023-010L","TLE_LINE2":"2 55279  70.0006 226.9416 0003033 273.8150 331.2792 15.01013175  1303","ECCENTRICITY":"0.00030330","TLE_LINE1":"1 55279U 23010L   23092.91667824 -.01124112  00000-0 -95403-1 0  9999","FILE":"3878419","ARG_OF_PERICENTER":"273.8150","COUNTRY_CODE":"US","GP_ID":"229355026","EPOCH":"2023-04-02T22:00:00.999936","APOAPSIS":"565.878","PERIAPSIS":"561.667","CLASSIFICATION_TYPE":"U","RA_OF_ASC_NODE":"226.9416","INCLINATION":"70.0006","CENTER_NAME":"EARTH","REF_FRAME":"TEME","MEAN_ELEMENT_THEORY":"SGP4","MEAN_MOTION":"15.01013175","MEAN_MOTION_DOT":"-0.01124112","MEAN_MOTION_DDOT":"0.0000000000000","SITE":"AFWTR"},{"ARG_OF_PERICENTER":"277.8251","FILE":"3878419","GP_ID":"229355755","COUNTRY_CODE":"US","PERIAPSIS":"553.814","EPOCH":"2023-04-02T22:00:00.999936","APOAPSIS":"558.236","CLASSIFICATION_TYPE":"U","RA_OF_ASC_NODE":"226.7143","INCLINATION":"70.0000","REF_FRAME":"TEME","CENTER_NAME":"EARTH","MEAN_MOTION":"15.03529529","MEAN_MOTION_DOT":"-0.01115057","MEAN_MOTION_DDOT":"0.0000000000000","MEAN_ELEMENT_THEORY":"SGP4","SITE":"AFWTR","RCS_SIZE":"LARGE","OBJECT_NAME":"STARLINK-5331","PERIOD":"95.775","SEMIMAJOR_AXIS":"6934.160","LAUNCH_DATE":"2023-01-19","MEAN_ANOMALY":"168.9121","NORAD_CAT_ID":"55280","TIME_SYSTEM":"UTC","ELEMENT_SET_NO":"999","BSTAR":"-0.08845600000000","OBJECT_TYPE":"PAYLOAD","DECAY_DATE":null,"OBJECT_ID":"2023-010M","EPHEMERIS_TYPE":"0","REV_AT_EPOCH":"130","TLE_LINE1":"1 55280U 23010M   23092.91667824 -.01115057  00000-0 -88456-1 0  9999","TLE_LINE2":"2 55280  70.0000 226.7143 0003189 277.8251 168.9121 15.03529529  1300","ECCENTRICITY":"0.00031890"},{"SITE":"AFWTR","MEAN_ELEMENT_THEORY":"SGP4","MEAN_MOTION_DDOT":"0.0000000000000","MEAN_MOTION_DOT":"-0.01115668","MEAN_MOTION":"15.01584991","CENTER_NAME":"EARTH","REF_FRAME":"TEME","INCLINATION":"70.0006","RA_OF_ASC_NODE":"226.8880","CLASSIFICATION_TYPE":"U","EPOCH":"2023-04-02T22:00:00.999936","APOAPSIS":"564.157","PERIAPSIS":"559.864","COUNTRY_CODE":"US","GP_ID":"229354025","FILE":"3878419","ARG_OF_PERICENTER":"271.7189","ECCENTRICITY":"0.00030930","TLE_LINE2":"2 55281  70.0006 226.8880 0003093 271.7189  20.8109 15.01584991  1307","TLE_LINE1":"1 55281U 23010N   23092.91667824 -.01115668  00000-0 -93207-1 0  9998","REV_AT_EPOCH":"130","EPHEMERIS_TYPE":"0","OBJECT_ID":"2023-010N","OBJECT_TYPE":"PAYLOAD","DECAY_DATE":null,"BSTAR":"-0.09320700000000","ELEMENT_SET_NO":"999","TIME_SYSTEM":"UTC","NORAD_CAT_ID":"55281","MEAN_ANOMALY":"20.8109","LAUNCH_DATE":"2023-01-19","SEMIMAJOR_AXIS":"6940.145","PERIOD":"95.899","OBJECT_NAME":"STARLINK-5298","RCS_SIZE":"LARGE"},{"FILE":"3878419","ARG_OF_PERICENTER":"277.5834","COUNTRY_CODE":"US","GP_ID":"229354275","EPOCH":"2023-04-02T22:00:00.999936","APOAPSIS":"557.404","PERIAPSIS":"553.101","RA_OF_ASC_NODE":"226.6888","CLASSIFICATION_TYPE":"U","INCLINATION":"69.9997","CENTER_NAME":"EARTH","REF_FRAME":"TEME","MEAN_ELEMENT_THEORY":"SGP4","MEAN_MOTION_DDOT":"0.0000000000000","MEAN_MOTION_DOT":"-0.01113111","MEAN_MOTION":"15.03780916","SITE":"AFWTR","OBJECT_NAME":"STARLINK-5330","RCS_SIZE":"LARGE","PERIOD":"95.759","SEMIMAJOR_AXIS":"6933.387","LAUNCH_DATE":"2023-01-19","TIME_SYSTEM":"UTC","NORAD_CAT_ID":"55282","MEAN_ANOMALY":"191.6509","BSTAR":"-0.08769900000000","ELEMENT_SET_NO":"999","OBJECT_TYPE":"PAYLOAD","DECAY_DATE":null,"REV_AT_EPOCH":"130","EPHEMERIS_TYPE":"0","OBJECT_ID":"2023-010P","ECCENTRICITY":"0.00031030","TLE_LINE2":"2 55282  69.9997 226.6888 0003103 277.5834 191.6509 15.03780916  1301","TLE_LINE1":"1 55282U 23010P   23092.91667824 -.01113111  00000-0 -87699-1 0  9998"}];
